NORAD_CAT_ID,OBJECT_NAME,OBJECT_TYPE,EPOCH,MEAN_MOTION,ECCENTRICITY,INCLINATION,RA_OF_ASC_NODE,ARG_OF_PERICENTER,MEAN_ANOMALY,BSTAR,MEAN_MOTION_DOT,MEAN_MOTION_DDOT,TLE_LINE0,TLE_LINE1,TLE_LINE2,SEMIMAJOR_AXIS,PERIOD,APOGEE,PERIGEE,DECAYED
50201.0,STARLINK-3255,PAYLOAD,2023-06-06 13:28:00,15.0883731,0.000118,53.2172,80.3052,95.0209,265.0918,4.1995e-05,3.81e-06,0.0,0 STARLINK-3255,1 50201U 21125AX  23157.56111601  .00000381  00000-0  41995-4 0  9992,2 50201  53.2172  80.3052 0001180  95.0209 265.0918 15.08837310 84697,6917.889,95.438,540.57,538.937,0.0
50201.0,STARLINK-3255,PAYLOAD,2023-06-07 03:46:28,15.08845097,0.0001189,53.2171,77.6286,93.6894,266.4234,6.9191e-05,8.14e-06,0.0,0 STARLINK-3255,1 50201U 21125AX  23158.15727176  .00000814  00000-0  69191-4 0  9997,2 50201  53.2171  77.6286 0001189  93.6894 266.4234 15.08845097 84302,6917.865,95.437,540.552,538.907,0.0
50201.0,STARLINK-3255,PAYLOAD,2023-06-07 13:18:47,15.08838199,0.0001395,53.2165,75.8432,95.5267,264.5885,3.3495e-05,2.45e-06,0.0,0 STARLINK-3255,1 50201U 21125AX  23158.55471722  .00000245  00000-0  33495-4 0  9990,2 50201  53.2165  75.8432 0001395  95.5267 264.5885 15.08838199 84847,6917.886,95.438,540.716,538.786,0.0
50201.0,STARLINK-3255,PAYLOAD,2023-06-07 21:15:43,15.08829899,0.0001276,53.2168,74.3567,88.6391,271.4747,4.8926e-05,4.91e-06,0.0,0 STARLINK-3255,1 50201U 21125AX  23158.88592345  .00000491  00000-0  48926-4 0  9999,2 50201  53.2168  74.3567 0001276  88.6391 271.4747 15.08829899 84898,6917.911,95.438,540.659,538.894,0.0
50201.0,STARLINK-3255,PAYLOAD,2023-06-08 00:26:29,15.088325,0.0001278,53.2168,73.7616,89.5597,270.5542,6.8037e-05,7.95e-06,0.0,0 STARLINK-3255,1 50201U 21125AX  23159.01840177  .00000795  00000-0  68037-4 0  9996,2 50201  53.2168  73.7616 0001278  89.5597 270.5542 15.08832500 84432,6917.903,95.438,540.652,538.884,0.0
50201.0,STARLINK-3255,PAYLOAD,2023-06-08 22:41:53,15.08847618,0.0001274,53.2172,69.5983,85.7897,274.3241,4.295e-05,3.96e-06,0.0,0 STARLINK-3255,1 50201U 21125AX  23159.94575332  .00000396  00000-0  42950-4 0  9999,2 50201  53.2172  69.5983 0001274  85.7897 274.3241 15.08847618 84573,6917.857,95.437,540.603,538.841,0.0
50201.0,STARLINK-3255,PAYLOAD,2023-06-09 11:24:58,15.08847611,0.0001152,53.2174,67.2211,78.9805,281.1317,4.7246e-05,4.64e-06,0.0,0 STARLINK-3255,1 50201U 21125AX  23160.47567216  .00000464  00000-0  47246-4 0  9990,2 50201  53.2174  67.2211 0001152  78.9805 281.1317 15.08847611 85138,6917.857,95.437,540.519,538.925,0.0
50201.0,STARLINK-3255,PAYLOAD,2023-06-10 03:18:49,15.08841398,0.0001417,53.2185,64.2436,104.5621,255.5528,1.2538e-05,-8.8e-07,0.0,0 STARLINK-3255,1 50201U 21125AX  23161.13807755 -.00000088  00000-0  12538-4 0  9998,2 50201  53.2185  64.2436 0001417 104.5621 255.5528 15.08841398 84754,6917.876,95.437,540.721,538.761,0.0
50201.0,STARLINK-3255,PAYLOAD,2023-06-11 03:09:37,15.08841613,0.0001269,53.2178,59.784,99.058,261.0556,-6.5318e-06,-3.92e-06,0.0,0 STARLINK-3255,1 50201U 21125AX  23162.13167969 -.00000392  00000-0 -65318-5 0  9999,2 50201  53.2178  59.7840 0001269  99.0580 261.0556 15.08841613 85384,6917.875,95.437,540.618,538.863,0.0
50201.0,STARLINK-3255,PAYLOAD,2023-06-11 15:52:42,15.08834186,0.0001492,53.218,57.4044,95.817,264.2992,5.1427e-05,5.3e-06,0.0,0 STARLINK-3255,1 50201U 21125AX  23162.66160369  .00000530  00000-0  51427-4 0  9991,2 50201  53.2180  57.4044 0001492  95.8170 264.2992 15.08834186 84986,6917.898,95.438,540.795,538.731,0.0
50201.0,STARLINK-3255,PAYLOAD,2023-06-11 23:49:37,15.08841634,0.0001434,53.2177,55.9188,93.2631,266.8525,0.00010415,1.37e-05,0.0,0 STARLINK-3255,1 50201U 21125AX  23162.99279740  .00001370  00000-0  10415-3 0  9995,2 50201  53.2177  55.9188 0001434  93.2631 266.8525 15.08841634 85037,6917.875,95.437,540.732,538.748,0.0
50201.0,STARLINK-3255,PAYLOAD,2023-06-12 09:21:56,15.08842442,0.0001432,53.218,54.1362,86.4337,273.6819,2.924e-05,1.77e-06,0.0,0 STARLINK-3255,1 50201U 21125AX  23163.39023936  .00000177  00000-0  29240-4 0  9995,2 50201  53.2180  54.1362 0001432  86.4337 273.6819 15.08842442 85570,6917.873,95.437,540.729,538.747,0.0
50201.0,STARLINK-3255,PAYLOAD,2023-06-12 14:08:06,15.08833607,0.0001391,53.2179,53.2481,95.6716,264.4435,5.168e-05,5.35e-06,0.0,0 STARLINK-3255,1 50201U 21125AX  23163.58896496  .00000535  00000-0  51680-4 0  9996,2 50201  53.2179  53.2481 0001391  95.6716 264.4435 15.08833607 85123,6917.9,95.438,540.727,538.803,0.0
50201.0,STARLINK-3255,PAYLOAD,2023-06-12 23:40:25,15.08838608,0.0001331,53.2173,51.4622,94.1178,265.9966,-1.9549e-05,-5.99e-06,0.0,0 STARLINK-3255,1 50201U 21125AX  23163.98640582 -.00000599  00000-0 -19549-4 0  9993,2 50201  53.2173  51.4622 0001331  94.1178 265.9966 15.08838608 85664,6917.885,95.438,540.67,538.829,0.0
50201.0,STARLINK-3255,PAYLOAD,2023-06-13 18:45:03,15.0883811,0.0001229,53.2176,47.8931,99.9213,260.1918,-1.9221e-05,-5.94e-06,0.0,0 STARLINK-3255,1 50201U 21125AX  23164.78128714 -.00000594  00000-0 -19221-4 0  9992,2 50201  53.2176  47.8931 0001229  99.9213 260.1918 15.08838110 85301,6917.886,95.438,540.601,538.901,0.0
50201.0,STARLINK-3255,PAYLOAD,2023-06-14 01:06:35,15.08843457,0.0001155,53.2176,46.7037,90.3439,269.7686,1.9133e-05,1.7e-07,0.0,0 STARLINK-3255,1 50201U 21125AX  23165.04624281  .00000017  00000-0  19133-4 0  9992,2 50201  53.2176  46.7037 0001155  90.3439 269.7686 15.08843457 85340,6917.87,95.437,540.534,538.936,0.0
50201.0,STARLINK-3255,PAYLOAD,2023-06-15 00:57:22,15.08835278,0.0001083,53.2177,42.2431,81.3756,278.7359,4.2159e-05,3.83e-06,0.0,0 STARLINK-3255,1 50201U 21125AX  23166.03984877  .00000383  00000-0  42159-4 0  9992,2 50201  53.2177  42.2431 0001083  81.3756 278.7359 15.08835278 85497,6917.895,95.438,540.509,539.011,0.0
50201.0,STARLINK-3255,PAYLOAD,2023-06-15 23:12:46,15.08846866,0.0001107,53.2176,38.0792,86.6583,273.4536,6.2974e-05,7.15e-06,0.0,0 STARLINK-3255,1 50201U 21125AX  23166.96720161  .00000715  00000-0  62974-4 0  9994,2 50201  53.2176  38.0792 0001107  86.6583 273.4536 15.08846866 85632,6917.859,95.437,540.49,538.959,0.0
50201.0,STARLINK-3255,PAYLOAD,2023-06-16 08:45:05,15.088437,0.0001051,53.2177,36.2923,89.9392,270.172,2.1485e-05,5.4e-07,0.0,0 STARLINK-3255,1 50201U 21125AX  23167.36464301  .00000054  00000-0  21485-4 0  9998,2 50201  53.2177  36.2923 0001051  89.9392 270.1720 15.08843700 86174,6917.869,95.437,540.461,539.007,0.0
50201.0,STARLINK-3255,PAYLOAD,2023-06-17 00:38:55,15.08850624,0.0001114,53.2183,33.3176,98.3105,261.8014,0.00010448,1.376e-05,0.0,0 STARLINK-3255,1 50201U 21125AX  23168.02703380  .00001376  00000-0  10448-3 0  9999,2 50201  53.2183  33.3176 0001114  98.3105 261.8014 15.08850624 85798,6917.848,95.437,540.484,538.942,0.0
50201.0,STARLINK-3255,PAYLOAD,2023-06-17 08:35:51,15.08851585,0.0001108,53.2184,31.8308,97.8107,262.3011,0.00010468,1.379e-05,0.0,0 STARLINK-3255,1 50201U 21125AX  23168.35823101  .00001379  00000-0  10468-3 0  9994,2 50201  53.2184  31.8308 0001108  97.8107 262.3011 15.08851585 86328,6917.845,95.437,540.476,538.943,0.0
50201.0,STARLINK-3255,PAYLOAD,2023-06-17 21:18:58,15.08830334,0.0001223,53.2173,29.4543,96.7014,263.4117,-9.7249e-05,-1.835e-05,0.0,0 STARLINK-3255,1 50201U 21125AX  23168.88817745 -.00001835  00000-0 -97249-4 0  9991,2 50201  53.2173  29.4543 0001223  96.7014 263.4117 15.08830334 86400,6917.91,95.438,540.621,538.929,0.0
50201.0,STARLINK-3255,PAYLOAD,2023-06-18 00:29:44,15.08832137,0.0001045,53.2182,28.8604,93.9218,266.1894,-0.00010826,-2.01e-05,0.0,0 STARLINK-3255,1 50201U 21125AX  23169.02065705 -.00002010  00000-0 -10826-3 0  9990,2 50201  53.2182  28.8604 0001045  93.9218 266.1894 15.08832137 85941,6917.904,95.438,540.492,539.047,0.0
50201.0,STARLINK-3255,PAYLOAD,2023-06-18 21:09:44,15.088406,0.0001038,53.2184,24.997,79.7895,280.3214,1.3868e-05,-6.7e-07,0.0,0 STARLINK-3255,1 50201U 21125AX  23169.88176844 -.00000067  00000-0  13868-4 0  9990,2 50201  53.2184  24.9970 0001038  79.7895 280.3214 15.08840600 86557,6917.879,95.438,540.462,539.025,0.0
50201.0,STARLINK-3255,PAYLOAD,2023-06-19 00:20:30,15.08852541,9.2e-05,53.2179,24.3999,95.5331,264.5766,-5.8708e-06,-3.81e-06,0.0,0 STARLINK-3255,1 50201U 21125AX  23170.01424117 -.00000381  00000-0 -58708-5 0  9999,2 50201  53.2179  24.3999 0000920  95.5331 264.5766 15.08852541 86098,6917.842,95.437,540.343,539.071,0.0
50201.0,STARLINK-3255,PAYLOAD,2023-06-19 21:00:32,15.0883391,9.94e-05,53.2186,20.5336,96.7761,263.3344,0.00012279,1.667e-05,0.0,0 STARLINK-3255,1 50201U 21125AX  23170.87537052  .00001667  00000-0  12279-3 0  9993,2 50201  53.2186  20.5336 0000994  96.7761 263.3344 15.08833910 86706,6917.899,95.438,540.452,539.076,0.0
50201.0,STARLINK-3255,PAYLOAD,2023-06-20 00:11:18,15.08836293,0.000101,53.2186,19.9386,96.2173,263.8934,0.0001387,1.92e-05,0.0,0 STARLINK-3255,1 50201U 21125AX  23171.00784895  .00001920  00000-0  13870-3 0  9998,2 50201  53.2186  19.9386 0001010  96.2173 263.8934 15.08836293 86241,6917.892,95.438,540.455,539.058,0.0
50201.0,STARLINK-3255,PAYLOAD,2023-06-20 12:54:23,15.08835631,0.0001168,53.2185,17.5617,94.4666,265.646,1.068e-05,-1.18e-06,0.0,0 STARLINK-3255,1 50201U 21125AX  23171.53777489 -.00000118  00000-0  10680-4 0  9993,2 50201  53.2185  17.5617 0001168  94.4666 265.6460 15.08835631 86803,6917.894,95.438,540.567,538.951,0.0
50201.0,STARLINK-3255,PAYLOAD,2023-06-20 19:15:56,15.08839625,0.0001016,53.2189,16.3726,104.4531,255.6574,-4.8258e-05,-1.056e-05,0.0,0 STARLINK-3255,1 50201U 21125AX  23171.80273476 -.00001056  00000-0 -48258-4 0  9995,2 50201  53.2189  16.3726 0001016 104.4531 255.6574 15.08839625 86846,6917.882,95.438,540.449,539.044,0.0
50201.0,STARLINK-3255,PAYLOAD,2023-06-20 22:26:42,15.08841991,9.83e-05,53.2191,15.7787,97.7395,262.3709,-3.3832e-05,-8.26e-06,0.0,0 STARLINK-3255,1 50201U 21125AX  23171.93521301 -.00000826  00000-0 -33832-4 0  9998,2 50201  53.2191  15.7787 0000983  97.7395 262.3709 15.08841991 86869,6917.874,95.437,540.419,539.059,0.0
